CCSDS_OMM_VERS = 2.0
CREATION_DATE  = 
ORIGINATOR     = 

OBJECT_NAME    = STARLINK-35686
OBJECT_ID      = 2025-257AD
CENTER_NAME    = EARTH
REF_FRAME      = TEME
TIME_SYSTEM    = UTC
MEAN_ELEMENT_THEORY = SGP/SGP4

EPOCH          = 2025-11-23T04:00:03.000096
MEAN_MOTION    = 15.74142138
ECCENTRICITY   = .0001485
INCLINATION    = 53.1578
RA_OF_ASC_NODE = 357.9477
ARG_OF_PERICENTER = 97.9194
MEAN_ANOMALY   = 61.0281

EPHEMERIS_TYPE = 0
CLASSIFICATION_TYPE = U
NORAD_CAT_ID   = 66407
ELEMENT_SET_NO = 999
REV_AT_EPOCH   = 335
BSTAR          = .63563E-3
MEAN_MOTION_DOT = .93308E-3
MEAN_MOTION_DDOT = 0

CCSDS_OMM_VERS = 2.0
CREATION_DATE  = 
ORIGINATOR     = 

OBJECT_NAME    = STARLINK-35679
OBJECT_ID      = 2025-257AE
CENTER_NAME    = EARTH
REF_FRAME      = TEME
TIME_SYSTEM    = UTC
MEAN_ELEMENT_THEORY = SGP/SGP4

EPOCH          = 2025-11-23T04:00:03.000096
MEAN_MOTION    = 15.74204532
ECCENTRICITY   = .0001183
INCLINATION    = 53.1586
RA_OF_ASC_NODE = 357.9445
ARG_OF_PERICENTER = 92.4513
MEAN_ANOMALY   = 68.4037

EPHEMERIS_TYPE = 0
CLASSIFICATION_TYPE = U
NORAD_CAT_ID   = 66408
ELEMENT_SET_NO = 999
REV_AT_EPOCH   = 335
BSTAR          = -.15566E-3
MEAN_MOTION_DOT = -.23377E-3
MEAN_MOTION_DDOT = 0

CCSDS_OMM_VERS = 2.0
CREATION_DATE  = 
ORIGINATOR     = 

OBJECT_NAME    = CHUTIAN-2 A
OBJECT_ID      = 2025-256A
CENTER_NAME    = EARTH
REF_FRAME      = TEME
TIME_SYSTEM    = UTC
MEAN_ELEMENT_THEORY = SGP/SGP4

EPOCH          = 2025-11-23T04:42:06.156576
MEAN_MOTION    = 14.49901206
ECCENTRICITY   = .0012695
INCLINATION    = 98.2789
RA_OF_ASC_NODE = 32.3024
ARG_OF_PERICENTER = 239.4139
MEAN_ANOMALY   = 120.5803

EPHEMERIS_TYPE = 0
CLASSIFICATION_TYPE = U
NORAD_CAT_ID   = 66409
ELEMENT_SET_NO = 999
REV_AT_EPOCH   = 204
BSTAR          = .26176E-4
MEAN_MOTION_DOT = .57E-6
MEAN_MOTION_DDOT = 0

CCSDS_OMM_VERS = 2.0
CREATION_DATE  = 
ORIGINATOR     = 

OBJECT_NAME    = CHUTIAN-2 B
OBJECT_ID      = 2025-256B
CENTER_NAME    = EARTH
REF_FRAME      = TEME
TIME_SYSTEM    = UTC
MEAN_ELEMENT_THEORY = SGP/SGP4

EPOCH          = 2025-11-23T04:36:21.558816
MEAN_MOTION    = 14.50985593
ECCENTRICITY   = .0012805
INCLINATION    = 98.2813
RA_OF_ASC_NODE = 32.3113
ARG_OF_PERICENTER = 243.4809
MEAN_ANOMALY   = 116.5073

EPHEMERIS_TYPE = 0
CLASSIFICATION_TYPE = U
NORAD_CAT_ID   = 66410
ELEMENT_SET_NO = 999
REV_AT_EPOCH   = 204
BSTAR          = .17981E-3
MEAN_MOTION_DOT = .667E-5
MEAN_MOTION_DDOT = 0

CCSDS_OMM_VERS = 2.0
CREATION_DATE  = 
ORIGINATOR     = 

OBJECT_NAME    = ZK-1A R/B
OBJECT_ID      = 2025-256C
CENTER_NAME    = EARTH
REF_FRAME      = TEME
TIME_SYSTEM    = UTC
MEAN_ELEMENT_THEORY = SGP/SGP4

EPOCH          = 2025-11-20T17:22:35.449824
MEAN_MOTION    = 15.01236100
ECCENTRICITY   = .02323532
INCLINATION    = 98.3243
RA_OF_ASC_NODE = 30.9055
ARG_OF_PERICENTER = 318.4537
MEAN_ANOMALY   = 39.9225

EPHEMERIS_TYPE = 0
CLASSIFICATION_TYPE = U
NORAD_CAT_ID   = 66411
ELEMENT_SET_NO = 999
REV_AT_EPOCH   = 174
BSTAR          = .48987823E-3
MEAN_MOTION_DOT = .11214E-3
MEAN_MOTION_DDOT = 0

CCSDS_OMM_VERS = 2.0
CREATION_DATE  = 
ORIGINATOR     = 

OBJECT_NAME    = HULIANWANG DIGUI 13A
OBJECT_ID      = 2025-258A
CENTER_NAME    = EARTH
REF_FRAME      = TEME
TIME_SYSTEM    = UTC
MEAN_ELEMENT_THEORY = SGP/SGP4

EPOCH          = 2025-11-22T15:10:38.762976
MEAN_MOTION    = 14.25711782
ECCENTRICITY   = .00138836
INCLINATION    = 50.0043
RA_OF_ASC_NODE = 346.6048
ARG_OF_PERICENTER = 288.5082
MEAN_ANOMALY   = 71.4323

EPHEMERIS_TYPE = 0
CLASSIFICATION_TYPE = U
NORAD_CAT_ID   = 66412
ELEMENT_SET_NO = 999
REV_AT_EPOCH   = 179
BSTAR          = -.34382313E-4
MEAN_MOTION_DOT = -.242E-5
MEAN_MOTION_DDOT = 0

CCSDS_OMM_VERS = 2.0
CREATION_DATE  = 
ORIGINATOR     = 

OBJECT_NAME    = HULIANWANG DIGUI 13B
OBJECT_ID      = 2025-258B
CENTER_NAME    = EARTH
REF_FRAME      = TEME
TIME_SYSTEM    = UTC
MEAN_ELEMENT_THEORY = SGP/SGP4

EPOCH          = 2025-11-22T15:18:48.377088
MEAN_MOTION    = 14.23476552
ECCENTRICITY   = .00134099
INCLINATION    = 50.0036
RA_OF_ASC_NODE = 346.6285
ARG_OF_PERICENTER = 287.0219
MEAN_ANOMALY   = 72.9224

EPHEMERIS_TYPE = 0
CLASSIFICATION_TYPE = U
NORAD_CAT_ID   = 66413
ELEMENT_SET_NO = 999
REV_AT_EPOCH   = 179
BSTAR          = -.26858099E-4
MEAN_MOTION_DOT = -.221E-5
MEAN_MOTION_DDOT = 0

CCSDS_OMM_VERS = 2.0
CREATION_DATE  = 
ORIGINATOR     = 

OBJECT_NAME    = HULIANWANG DIGUI 13C
OBJECT_ID      = 2025-258C
CENTER_NAME    = EARTH
REF_FRAME      = TEME
TIME_SYSTEM    = UTC
MEAN_ELEMENT_THEORY = SGP/SGP4

EPOCH          = 2025-11-22T15:14:32.104320
MEAN_MOTION    = 14.23501856
ECCENTRICITY   = .00136201
INCLINATION    = 50.0054
RA_OF_ASC_NODE = 346.6217
ARG_OF_PERICENTER = 286.0037
MEAN_ANOMALY   = 73.9375

EPHEMERIS_TYPE = 0
CLASSIFICATION_TYPE = U
NORAD_CAT_ID   = 66414
ELEMENT_SET_NO = 999
REV_AT_EPOCH   = 179
BSTAR          = -.33527671E-4
MEAN_MOTION_DOT = -.236E-5
MEAN_MOTION_DDOT = 0

CCSDS_OMM_VERS = 2.0
CREATION_DATE  = 
ORIGINATOR     = 

OBJECT_NAME    = HULIANWANG DIGUI 13D
OBJECT_ID      = 2025-258D
CENTER_NAME    = EARTH
REF_FRAME      = TEME
TIME_SYSTEM    = UTC
MEAN_ELEMENT_THEORY = SGP/SGP4

EPOCH          = 2025-11-22T13:27:20.820960
MEAN_MOTION    = 14.25899858
ECCENTRICITY   = .00130561
INCLINATION    = 50.0048
RA_OF_ASC_NODE = 346.8921
ARG_OF_PERICENTER = 293.5399
MEAN_ANOMALY   = 66.4143

EPHEMERIS_TYPE = 0
CLASSIFICATION_TYPE = U
NORAD_CAT_ID   = 66415
ELEMENT_SET_NO = 999
REV_AT_EPOCH   = 178
BSTAR          = -.1142075E-4
MEAN_MOTION_DOT = -.188E-5
MEAN_MOTION_DDOT = 0

CCSDS_OMM_VERS = 2.0
CREATION_DATE  = 
ORIGINATOR     = 

OBJECT_NAME    = HULIANWANG DIGUI 13E
OBJECT_ID      = 2025-258E
CENTER_NAME    = EARTH
REF_FRAME      = TEME
TIME_SYSTEM    = UTC
MEAN_ELEMENT_THEORY = SGP/SGP4

EPOCH          = 2025-11-21T13:55:20.652096
MEAN_MOTION    = 14.23752693
ECCENTRICITY   = .00123441
INCLINATION    = 50.0017
RA_OF_ASC_NODE = 351.0699
ARG_OF_PERICENTER = 286.7085
MEAN_ANOMALY   = 73.2473

EPHEMERIS_TYPE = 0
CLASSIFICATION_TYPE = U
NORAD_CAT_ID   = 66416
ELEMENT_SET_NO = 999
REV_AT_EPOCH   = 164
BSTAR          = -.27183697E-4
MEAN_MOTION_DOT = -.222E-5
MEAN_MOTION_DDOT = 0

CCSDS_OMM_VERS = 2.0
CREATION_DATE  = 
ORIGINATOR     = 

OBJECT_NAME    = HULIANWANG DIGUI 13F
OBJECT_ID      = 2025-258F
CENTER_NAME    = EARTH
REF_FRAME      = TEME
TIME_SYSTEM    = UTC
MEAN_ELEMENT_THEORY = SGP/SGP4

EPOCH          = 2025-11-21T20:37:58.418688
MEAN_MOTION    = 14.24387717
ECCENTRICITY   = .00126023
INCLINATION    = 50.0021
RA_OF_ASC_NODE = 349.8393
ARG_OF_PERICENTER = 292.3047
MEAN_ANOMALY   = 67.6530

EPHEMERIS_TYPE = 0
CLASSIFICATION_TYPE = U
NORAD_CAT_ID   = 66417
ELEMENT_SET_NO = 999
REV_AT_EPOCH   = 168
BSTAR          = -.28530434E-4
MEAN_MOTION_DOT = -.226E-5
MEAN_MOTION_DDOT = 0

CCSDS_OMM_VERS = 2.0
CREATION_DATE  = 
ORIGINATOR     = 

OBJECT_NAME    = HULIANWANG DIGUI 13G
OBJECT_ID      = 2025-258G
CENTER_NAME    = EARTH
REF_FRAME      = TEME
TIME_SYSTEM    = UTC
MEAN_ELEMENT_THEORY = SGP/SGP4

EPOCH          = 2025-11-22T03:19:35.370048
MEAN_MOTION    = 14.26084022
ECCENTRICITY   = .00120986
INCLINATION    = 50.0021
RA_OF_ASC_NODE = 348.6466
ARG_OF_PERICENTER = 285.7809
MEAN_ANOMALY   = 74.1771

EPHEMERIS_TYPE = 0
CLASSIFICATION_TYPE = U
NORAD_CAT_ID   = 66418
ELEMENT_SET_NO = 999
REV_AT_EPOCH   = 172
BSTAR          = -.13163034E-4
MEAN_MOTION_DOT = -.192E-5
MEAN_MOTION_DDOT = 0

