STARLINK-35686          
1 66407U 25257AD  25327.16670139  .00093308  00000+0  63563-3 0  9994
2 66407  53.1578 357.9477 0001485  97.9194  61.0281 15.74142138  3358
STARLINK-35679          
1 66408U 25257AE  25327.16670139 -.00023377  00000+0 -15566-3 0  9996
2 66408  53.1586 357.9445 0001183  92.4513  68.4037 15.74204532  3350
CHUTIAN-2 A             
1 66409U 25256A   25327.19590459  .00000057  00000+0  26176-4 0  9993
2 66409  98.2789  32.3024 0012695 239.4139 120.5803 14.49901206  2049
CHUTIAN-2 B             
1 66410U 25256B   25327.19191619  .00000667  00000+0  17981-3 0  9990
2 66410  98.2813  32.3113 0012805 243.4809 116.5073 14.50985593  2047
ZK-1A R/B               
1 66411U 25256C   25324.72402141  .00011214  00000+0  48988-3 0  9993
2 66411  98.3243  30.9055 0232353 318.4537  39.9225 15.01236100  1741
HULIANWANG DIGUI 13A    
1 66412U 25258A   25326.63239309 -.00000242  00000+0 -34382-4 0  9997
2 66412  50.0043 346.6048 0013883 288.5082  71.4323 14.25711782  1795
HULIANWANG DIGUI 13B    
1 66413U 25258B   25326.63805992 -.00000221  00000+0 -26858-4 0  9991
2 66413  50.0036 346.6285 0013409 287.0219  72.9224 14.23476552  1798
HULIANWANG DIGUI 13C    
1 66414U 25258C   25326.63509380 -.00000236  00000+0 -33528-4 0  9992
2 66414  50.0054 346.6217 0013620 286.0037  73.9375 14.23501856  1790
HULIANWANG DIGUI 13D    
1 66415U 25258D   25326.56065765 -.00000188  00000+0 -11421-4 0  9993
2 66415  50.0048 346.8921 0013056 293.5399  66.4143 14.25899858  1788
HULIANWANG DIGUI 13E    
1 66416U 25258E   25325.58010014 -.00000222  00000+0 -27184-4 0  9994
2 66416  50.0017 351.0699 0012344 286.7085  73.2473 14.23752693  1640
HULIANWANG DIGUI 13F    
1 66417U 25258F   25325.85970392 -.00000226  00000+0 -28530-4 0  9999
2 66417  50.0021 349.8393 0012602 292.3047  67.6530 14.24387717  1687
HULIANWANG DIGUI 13G    
1 66418U 25258G   25326.13860382 -.00000192  00000+0 -13163-4 0  9997
2 66418  50.0021 348.6466 0012098 285.7809  74.1771 14.26084022  1727
